{"spaceTrack"{"CCSDS_OMM_VERS":"2.0","COMMENT":"GENERATED VIA SPACE-TRACK.ORG API","CREATION_DATE":"2021-01-21T06:26:10","ORIGINATOR":"18 SPCS","OBJECT_NAME":"STARLINK-1037","OBJECT_ID":"2019-074AF","CENTER_NAME":"EARTH","REF_FRAME":"TEME","TIME_SYSTEM":"UTC","MEAN_ELEMENT_THEORY":"SGP4","EPOCH":"2021-01-21T06:26:10","MEAN_MOTION":15.07066624,"ECCENTRICITY":0.0002252,"INCLINATION":52.9992,"RA_OF_ASC_NODE":311.8264,"ARG_OF_PERICENTER":55.8851,"MEAN_ANOMALY":304.2351,"EPHEMERIS_TYPE":0,"CLASSIFICATION_TYPE":"U","NORAD_CAT_ID":44742,"ELEMENT_SET_NO":999,"REV_AT_EPOCH":6690,"BSTAR":0.00034905,"MEAN_MOTION_DOT":0.00005014,"MEAN_MOTION_DDOT":0,"SEMIMAJOR_AXIS":6923.306,"PERIOD":95.55,"APOAPSIS":546.73,"PERIAPSIS":543.612,"OBJECT_TYPE":"PAYLOAD","RCS_SIZE":"LARGE","COUNTRY_CODE":"US","LAUNCH_DATE":"2019-11-11","SITE":"AFETR","DECAY_DATE":null,"DECAYED":0,"FILE":2940260,"GP_ID":170412458,"TLE_LINE0":"0 STARLINK-1037","TLE_LINE1":"1 44742U 19074AF  21026.47570697  .00005014  00000-0  34905-3 0  9992","TLE_LINE2":"2 44742  52.9992 311.8264 0002252  55.8851 304.2351 15.07066624 66903"},"version":"v1.0","launch":"5eb87d39ffd86e000604b37d","longitude":76,"latitude":-39.9338561936901,"height_km":559.8224987387257,"velocity_kms":7.580487708827942,"id":"5eed7714096e59000698565c"}
{"spaceTrack"{"CCSDS_OMM_VERS":"2.0","COMMENT":"GENERATED VIA SPACE-TRACK.ORG API","CREATION_DATE":"2021-01-21T06:26:10","ORIGINATOR":"18 SPCS","OBJECT_NAME":"STARLINK-1029","OBJECT_ID":"2019-074X","CENTER_NAME":"EARTH","REF_FRAME":"TEME","TIME_SYSTEM":"UTC","MEAN_ELEMENT_THEORY":"SGP4","EPOCH":"2021-01-21T06:26:10","MEAN_MOTION":15.05591239,"ECCENTRICITY":0.0002024,"INCLINATION":53.001,"RA_OF_ASC_NODE":213.0902,"ARG_OF_PERICENTER":92.9619,"MEAN_ANOMALY":267.16,"EPHEMERIS_TYPE":0,"CLASSIFICATION_TYPE":"U","NORAD_CAT_ID":44734,"ELEMENT_SET_NO":999,"REV_AT_EPOCH":6829,"BSTAR":-0.000056326,"MEAN_MOTION_DOT":-0.000011,"MEAN_MOTION_DDOT":0,"SEMIMAJOR_AXIS":6927.828,"PERIOD":95.643,"APOAPSIS":551.096,"PERIAPSIS":548.291,"OBJECT_TYPE":"PAYLOAD","RCS_SIZE":"LARGE","COUNTRY_CODE":"US","LAUNCH_DATE":"2019-11-11","SITE":"AFETR","DECAY_DATE":null,"DECAYED":0,"FILE":2940260,"GP_ID":170412457,"TLE_LINE0":"0 STARLINK-1029","TLE_LINE1":"1 44734U 19074X   21026.53573673 -.00001100  00000-0 -56326-4 0  9993","TLE_LINE2":"2 44734  53.0010 213.0902 0002024  92.9619 267.1600 15.05591239 68291"},"version":"v1.0","launch":"5eb87d39ffd86e000604b37d","longitude":180,"latitude":-52.85506906838101,"height_km":569.4240078015691,"velocity_kms":7.575365967866858,"id":"5eed7714096e59000698565d"}
{"spaceTrack"{"CCSDS_OMM_VERS":"2.0","COMMENT":"GENERATED VIA SPACE-TRACK.ORG API","CREATION_DATE":"2021-01-21T06:26:10","ORIGINATOR":"18 SPCS","OBJECT_NAME":"STARLINK-1014","OBJECT_ID":"2019-074H","CENTER_NAME":"EARTH","REF_FRAME":"TEME","TIME_SYSTEM":"UTC","MEAN_ELEMENT_THEORY":"SGP4","EPOCH":"2021-01-21T06:26:10","MEAN_MOTION":15.06394806,"ECCENTRICITY":0.0000909,"INCLINATION":53.0384,"RA_OF_ASC_NODE":293.4092,"ARG_OF_PERICENTER":221.4955,"MEAN_ANOMALY":138.5965,"EPHEMERIS_TYPE":0,"CLASSIFICATION_TYPE":"U","NORAD_CAT_ID":44720,"ELEMENT_SET_NO":999,"REV_AT_EPOCH":6716,"BSTAR":-0.000070136,"MEAN_MOTION_DOT":-0.00001326,"MEAN_MOTION_DDOT":0,"SEMIMAJOR_AXIS":6925.364,"PERIOD":95.592,"APOAPSIS":547.859,"PERIAPSIS":546.6,"OBJECT_TYPE":"PAYLOAD","RCS_SIZE":"LARGE","COUNTRY_CODE":"US","LAUNCH_DATE":"2019-11-11","SITE":"AFETR","DECAY_DATE":null,"DECAYED":0,"FILE":2940260,"GP_ID":170412919,"TLE_LINE0":"0 STARLINK-1014","TLE_LINE1":"1 44720U 19074H   21026.44607792 -.00001326  00000-0 -70136-4 0  9993","TLE_LINE2":"2 44720  53.0384 293.4092 0000909 221.4955 138.5965 15.06394806 67166"},"version":"v1.0","launch":"5eb87d39ffd86e000604b37d","longitude":153,"latitude":25.614796343472925,"height_km":548.9013111652903,"velocity_kms":7.590677511816736,"id":"5eed7714096e59000698565e"}
{"spaceTrack"{"CCSDS_OMM_VERS":"2.0","COMMENT":"GENERATED VIA SPACE-TRACK.ORG API","CREATION_DATE":"2021-01-21T06:26:10","ORIGINATOR":"18 SPCS","OBJECT_NAME":"STARLINK-1034","OBJECT_ID":"2019-074AC","CENTER_NAME":"EARTH","REF_FRAME":"TEME","TIME_SYSTEM":"UTC","MEAN_ELEMENT_THEORY":"SGP4","EPOCH":"2021-01-21T06:26:10","MEAN_MOTION":15.06005702,"ECCENTRICITY":0.0001501,"INCLINATION":53.0013,"RA_OF_ASC_NODE":313.1135,"ARG_OF_PERICENTER":86.725,"MEAN_ANOMALY":273.391,"EPHEMERIS_TYPE":0,"CLASSIFICATION_TYPE":"U","NORAD_CAT_ID":44739,"ELEMENT_SET_NO":999,"REV_AT_EPOCH":6688,"BSTAR":0.00013257,"MEAN_MOTION_DOT":0.00001674,"MEAN_MOTION_DDOT":0,"SEMIMAJOR_AXIS":6926.557,"PERIOD":95.617,"APOAPSIS":549.462,"PERIAPSIS":547.383,"OBJECT_TYPE":"PAYLOAD","RCS_SIZE":"LARGE","COUNTRY_CODE":"US","LAUNCH_DATE":"2019-11-11","SITE":"AFETR","DECAY_DATE":null,"DECAYED":0,"FILE":2940260,"GP_ID":170413196,"TLE_LINE0":"0 STARLINK-1034","TLE_LINE1":"1 44739U 19074AC  21026.50379901  .00001674  00000-0  13257-3 0  9992","TLE_LINE2":"2 44739  53.0013 313.1135 0001501  86.7250 273.3910 15.06005702 66882"},"version":"v1.0","launch":"5eb87d39ffd86e000604b37d","longitude":146,"latitude":51.732152105510835,"height_km":553.612984816561,"velocity_kms":7.591731871683088,"id":"5eed7714096e59000698565f"}
{"spaceTrack"{"CCSDS_OMM_VERS":"2.0","COMMENT":"GENERATED VIA SPACE-TRACK.ORG API","CREATION_DATE":"2021-01-21T06:26:10","ORIGINATOR":"18 SPCS","OBJECT_NAME":"STARLINK-1186","OBJECT_ID":"2020-006BH","CENTER_NAME":"EARTH","REF_FRAME":"TEME","TIME_SYSTEM":"UTC","MEAN_ELEMENT_THEORY":"SGP4","EPOCH":"2021-01-21T06:26:10","MEAN_MOTION":15.06396779,"ECCENTRICITY":0.0002206,"INCLINATION":53.0589,"RA_OF_ASC_NODE":354.1967,"ARG_OF_PERICENTER":62.0136,"MEAN_ANOMALY":298.1076,"EPHEMERIS_TYPE":0,"CLASSIFICATION_TYPE":"U","NORAD_CAT_ID":45099,"ELEMENT_SET_NO":999,"REV_AT_EPOCH":5541,"BSTAR":-0.000038352,"MEAN_MOTION_DOT":-0.00000853,"MEAN_MOTION_DDOT":0,"SEMIMAJOR_AXIS":6925.358,"PERIOD":95.592,"APOAPSIS":548.751,"PERIAPSIS":545.696,"OBJECT_TYPE":"PAYLOAD","RCS_SIZE":"LARGE","COUNTRY_CODE":"US","LAUNCH_DATE":"2020-01-29","SITE":"AFETR","DECAY_DATE":null,"DECAYED":0,"FILE":2940260,"GP_ID":170413235,"TLE_LINE0":"0 STARLINK-1186","TLE_LINE1":"1 45099U 20006BH  21026.28573945 -.00000853  00000-0 -38352-4 0  9992","TLE_LINE2":"2 45099  53.0589 354.1967 0002206  62.0136 298.1076 15.06396779 55413"},"version":"v1.0","launch":"5eb87d3fffd86e000604b382","longitude":170,"latitude":-2.4110315126836683,"height_km":549.1812312294251,"velocity_kms":7.5879709829154,"id":"5eed7714096e590006985660"}
{"spaceTrack"{"CCSDS_OMM_VERS":"2.0","COMMENT":"GENERATED VIA SPACE-TRACK.ORG API","CREATION_DATE":"2021-01-21T06:26:10","ORIGINATOR":"18 SPCS","OBJECT_NAME":"STARLINK-1032","OBJECT_ID":"2019-074AA","CENTER_NAME":"EARTH","REF_FRAME":"TEME","TIME_SYSTEM":"UTC","MEAN_ELEMENT_THEORY":"SGP4","EPOCH":"2021-01-21T06:26:10","MEAN_MOTION":15.06401094,"ECCENTRICITY":0.0002137,"INCLINATION":53.057,"RA_OF_ASC_NODE":313.1811,"ARG_OF_PERICENTER":65.7799,"MEAN_ANOMALY":294.3413,"EPHEMERIS_TYPE":0,"CLASSIFICATION_TYPE":"U","NORAD_CAT_ID":44737,"ELEMENT_SET_NO":999,"REV_AT_EPOCH":6689,"BSTAR":0.000082585,"MEAN_MOTION_DOT":0.00000949,"MEAN_MOTION_DDOT":0,"SEMIMAJOR_AXIS":6925.345,"PERIOD":95.592,"APOAPSIS":548.69,"PERIAPSIS":545.73,"OBJECT_TYPE":"PAYLOAD","RCS_SIZE":"LARGE","COUNTRY_CODE":"US","LAUNCH_DATE":"2019-11-11","SITE":"AFETR","DECAY_DATE":null,"DECAYED":0,"FILE":2940260,"GP_ID":170412266,"TLE_LINE0":"0 STARLINK-1032","TLE_LINE1":"1 44737U 19074AA  21026.51057972  .00000949  00000-0  82585-4 0  9997","TLE_LINE2":"2 44737  53.0570 313.1811 0002137  65.7799 294.3413 15.06401094 66896"},"version":"v1.0","launch":"5eb87d39ffd86e000604b37d","longitude":42,"latitude":33.02275158744803,"height_km":548.0685251793138,"velocity_kms":7.59300257068389,"id":"5eed7714096e590006985661"}
{"spaceTrack"{"CCSDS_OMM_VERS":"2.0","COMMENT":"GENERATED VIA SPACE-TRACK.ORG API","CREATION_DATE":"2021-01-21T06:26:10","ORIGINATOR":"18 SPCS","OBJECT_NAME":"STARLINK-1027","OBJECT_ID":"2019-074V","CENTER_NAME":"EARTH","REF_FRAME":"TEME","TIME_SYSTEM":"UTC","MEAN_ELEMENT_THEORY":"SGP4","EPOCH":"2021-01-21T06:26:10","MEAN_MOTION":15.06388378,"ECCENTRICITY":0.0002469,"INCLINATION":53.0581,"RA_OF_ASC_NODE":312.1459,"ARG_OF_PERICENTER":77.2974,"MEAN_ANOMALY":282.8291,"EPHEMERIS_TYPE":0,"CLASSIFICATION_TYPE":"U","NORAD_CAT_ID":44732,"ELEMENT_SET_NO":999,"REV_AT_EPOCH":6709,"BSTAR":-0.00020526,"MEAN_MOTION_DOT":-0.00003337,"MEAN_MOTION_DDOT":0,"SEMIMAJOR_AXIS":6925.384,"PERIOD":95.593,"APOAPSIS":548.959,"PERIAPSIS":545.539,"OBJECT_TYPE":"PAYLOAD","RCS_SIZE":"LARGE","COUNTRY_CODE":"US","LAUNCH_DATE":"2019-11-11","SITE":"AFETR","DECAY_DATE":null,"DECAYED":0,"FILE":2940406,"GP_ID":170439278,"TLE_LINE0":"0 STARLINK-1027","TLE_LINE1":"1 44732U 19074V   21026.74277819 -.00003337  00000-0 -20526-3 0  9993","TLE_LINE2":"2 44732  53.0581 312.1459 0002469  77.2974 282.8291 15.06388378 67099"},"version":"v1.0","launch":"5eb87d39ffd86e000604b37d","longitude":143,"latitude":-33.18701766043449,"height_km":559.0239185587898,"velocity_kms":7.581057629374754,"id":"5eed7714096e590006985662"}
